NORAD_CAT_ID,OBJECT_NAME,OBJECT_TYPE,EPOCH,MEAN_MOTION,ECCENTRICITY,INCLINATION,RA_OF_ASC_NODE,ARG_OF_PERICENTER,MEAN_ANOMALY,BSTAR,MEAN_MOTION_DOT,MEAN_MOTION_DDOT,TLE_LINE0,TLE_LINE1,TLE_LINE2,SEMIMAJOR_AXIS,PERIOD,APOGEE,PERIGEE,DECAYED
53003.0,STARLINK-4255,PAYLOAD,2023-02-14 19:15:42,15.08845426,7.45e-05,53.2164,77.0043,75.0984,285.009,0.00025624,3.793e-05,0.0,0 STARLINK-4255,1 53003U 22076T   23045.80257893  .00003793  00000-0  25624-3 0  9998,2 53003  53.2164  77.0043 0000745  75.0984 285.0090 15.08845426 33939,6917.864,95.437,540.244,539.213,0.0
53003.0,STARLINK-4255,PAYLOAD,2023-02-15 07:58:48,15.0883847,0.0001042,53.215,74.6246,77.5687,282.5421,0.00018097,2.593e-05,0.0,0 STARLINK-4255,1 53003U 22076T   23046.33250427  .00002593  00000-0  18097-3 0  9996,2 53003  53.2150  74.6246 0001042  77.5687 282.5421 15.08838470 34482,6917.885,95.438,540.471,539.029,0.0
53003.0,STARLINK-4255,PAYLOAD,2023-02-15 11:09:34,15.08853133,0.000125,53.2171,74.0307,81.1975,278.9159,0.00031348,4.706e-05,0.0,0 STARLINK-4255,1 53003U 22076T   23046.46497808  .00004706  00000-0  31348-3 0  9998,2 53003  53.2171  74.0307 0001250  81.1975 278.9159 15.08853133 34502,6917.84,95.437,540.57,538.841,0.0
53003.0,STARLINK-4255,PAYLOAD,2023-02-15 19:06:29,15.08850721,0.0001271,53.2174,72.5449,78.4338,281.6797,0.00025999,3.853e-05,0.0,0 STARLINK-4255,1 53003U 22076T   23046.79617797  .00003853  00000-0  25999-3 0  9992,2 53003  53.2174  72.5449 0001271  78.4338 281.6797 15.08850721 34082,6917.848,95.437,540.592,538.833,0.0
53003.0,STARLINK-4255,PAYLOAD,2023-02-16 11:00:19,15.08875604,0.0001158,53.2158,69.5699,85.1644,274.948,0.00064266,9.965e-05,0.0,0 STARLINK-4255,1 53003U 22076T   23047.45856334  .00009965  00000-0  64266-3 0  9998,2 53003  53.2158  69.5699 0001158  85.1644 274.9480 15.08875604 34188,6917.772,95.435,540.438,538.835,0.0
53003.0,STARLINK-4255,PAYLOAD,2023-02-16 18:57:17,15.08825962,0.0001564,53.2171,68.0847,75.8949,284.2217,-0.00022305,-3.835e-05,0.0,0 STARLINK-4255,1 53003U 22076T   23047.78978429 -.00003835  00000-0 -22305-3 0  9994,2 53003  53.2171  68.0847 0001564  75.8949 284.2217 15.08825962 34709,6917.923,95.438,540.87,538.706,0.0
53003.0,STARLINK-4255,PAYLOAD,2023-02-17 12:26:31,15.08830493,8.65e-05,53.2161,64.8119,86.151,273.9581,-7.3285e-05,-1.453e-05,0.0,0 STARLINK-4255,1 53003U 22076T   23048.51842366 -.00001453  00000-0 -73285-4 0  9994,2 53003  53.2161  64.8119 0000865  86.1510 273.9581 15.08830493 34340,6917.909,95.438,540.373,539.176,0.0
53003.0,STARLINK-4255,PAYLOAD,2023-02-18 10:41:56,15.08835285,7.78e-05,53.2164,60.649,78.9764,281.1315,0.00065572,0.00010162,0.0,0 STARLINK-4255,1 53003U 22076T   23049.44579484  .00010162  00000-0  65572-3 0  9999,2 53003  53.2164  60.6490 0000778  78.9764 281.1315 15.08835285 34487,6917.895,95.438,540.298,539.222,0.0
53003.0,STARLINK-4255,PAYLOAD,2023-02-19 10:32:42,15.08870118,7.53e-05,53.2166,56.1883,80.0533,280.0544,0.0008954,0.00014003,0.0,0 STARLINK-4255,1 53003U 22076T   23050.43938311  .00014003  00000-0  89540-3 0  9997,2 53003  53.2166  56.1883 0000753  80.0533 280.0544 15.08870118 35102,6917.788,95.436,540.174,539.132,0.0
53003.0,STARLINK-4255,PAYLOAD,2023-02-19 16:54:15,15.08849621,0.0001203,53.2171,54.997,75.9528,284.1598,0.00017076,2.432e-05,0.0,0 STARLINK-4255,1 53003U 22076T   23050.70434340  .00002432  00000-0  17076-3 0  9998,2 53003  53.2171  54.9970 0001203  75.9528 284.1598 15.08849621 35142,6917.851,95.437,540.548,538.884,0.0
53003.0,STARLINK-4255,PAYLOAD,2023-02-20 10:23:29,15.08854307,9.92e-05,53.2177,51.7278,86.3497,273.7608,0.00017493,2.498e-05,0.0,0 STARLINK-4255,1 53003U 22076T   23051.43298014  .00002498  00000-0  17493-3 0  9990,2 53003  53.2177  51.7278 0000992  86.3497 273.7608 15.08854307 34781,6917.837,95.437,540.388,539.015,0.0
53003.0,STARLINK-4255,PAYLOAD,2023-02-20 16:45:02,15.08842217,0.0001278,53.2179,50.538,74.9816,285.1318,-5.9604e-05,-1.236e-05,0.0,0 STARLINK-4255,1 53003U 22076T   23051.69794448 -.00001236  00000-0 -59604-4 0  9992,2 53003  53.2179  50.5380 0001278  74.9816 285.1318 15.08842217 35299,6917.874,95.437,540.623,538.855,0.0
53003.0,STARLINK-4255,PAYLOAD,2023-02-21 11:49:40,15.08842363,0.0001472,53.2177,46.9673,70.6343,289.4809,0.00010683,1.413e-05,0.0,0 STARLINK-4255,1 53003U 22076T   23052.49282632  .00001413  00000-0  10683-3 0  9996,2 53003  53.2177  46.9673 0001472  70.6343 289.4809 15.08842363 34940,6917.873,95.437,540.756,538.72,0.0
53003.0,STARLINK-4255,PAYLOAD,2023-02-21 16:35:49,15.08832955,0.0001339,53.217,46.0768,86.8488,273.2658,-4.0482e-05,-9.32e-06,0.0,0 STARLINK-4255,1 53003U 22076T   23052.69155056 -.00000932  00000-0 -40482-4 0  9995,2 53003  53.2170  46.0768 0001339  86.8488 273.2658 15.08832955 35445,6917.902,95.438,540.693,538.841,0.0
53003.0,STARLINK-4255,PAYLOAD,2023-02-22 10:05:03,15.08857993,9.52e-05,53.2171,42.8059,92.162,267.9481,0.00056605,8.737e-05,0.0,0 STARLINK-4255,1 53003U 22076T   23053.42017954  .00008737  00000-0  56605-3 0  9993,2 53003  53.2171  42.8059 0000952  92.1620 267.9481 15.08857993 35556,6917.825,95.436,540.349,539.032,0.0
53003.0,STARLINK-4255,PAYLOAD,2023-02-22 11:40:26,15.08862261,9.43e-05,53.2167,42.5088,98.9215,261.1884,0.00083744,0.00013073,0.0,0 STARLINK-4255,1 53003U 22076T   23053.48641976  .00013073  00000-0  83744-3 0  9999,2 53003  53.2167  42.5088 0000943  98.9215 261.1884 15.08862261 35090,6917.812,95.436,540.33,539.025,0.0
53003.0,STARLINK-4255,PAYLOAD,2023-02-22 16:26:36,15.08842399,4.2e-05,53.2166,41.6164,240.8671,119.2279,-4.5455e-05,-1.011e-05,0.0,0 STARLINK-4255,1 53003U 22076T   23053.68513917 -.00001011  00000-0 -45455-4 0  9993,2 53003  53.2166  41.6164 0000420 240.8671 119.2279 15.08842399 35594,6917.873,95.437,540.029,539.448,0.0
53003.0,STARLINK-4255,PAYLOAD,2023-02-23 09:55:51,15.0885698,0.0001186,53.217,38.346,87.5564,272.5564,0.0011801,0.00018552,0.0,0 STARLINK-4255,1 53003U 22076T   23054.41378640  .00018552  00000-0  11801-2 0  9999,2 53003  53.2170  38.3460 0001186  87.5564 272.5564 15.08856980 35230,6917.828,95.436,540.514,538.873,0.0
53003.0,STARLINK-4255,PAYLOAD,2023-02-23 16:17:24,15.08842415,0.000128,53.2173,37.1567,78.4917,281.6219,0.00095376,0.00014925,0.0,0 STARLINK-4255,1 53003U 22076T   23054.67875111  .00014925  00000-0  95376-3 0  9992,2 53003  53.2173  37.1567 0001280  78.4917 281.6219 15.08842415 35274,6917.873,95.437,540.623,538.853,0.0
53003.0,STARLINK-4255,PAYLOAD,2023-02-23 22:38:56,15.0885375,0.0001536,53.2171,35.9671,83.1415,276.9751,0.0013914,0.00021934,0.0,0 STARLINK-4255,1 53003U 22076T   23054.94371113  .00021934  00000-0  13914-2 0  9990,2 53003  53.2171  35.9671 0001536  83.1415 276.9751 15.08853750 35782,6917.838,95.437,540.766,538.641,0.0
53003.0,STARLINK-4255,PAYLOAD,2023-02-24 09:46:38,15.08870929,0.0001511,53.2175,33.8857,85.7342,274.3823,0.001701,0.0002691,0.0,0 STARLINK-4255,1 53003U 22076T   23055.40738490  .00026910  00000-0  17010-2 0  9997,2 53003  53.2175  33.8857 0001511  85.7342 274.3823 15.08870929 35384,6917.786,95.436,540.696,538.606,0.0
53003.0,STARLINK-4255,PAYLOAD,2023-02-24 16:08:10,15.08861864,0.0001466,53.2178,32.6961,99.561,260.5547,0.0008245,0.00012866,0.0,0 STARLINK-4255,1 53003U 22076T   23055.67234288  .00012866  00000-0  82450-3 0  9998,2 53003  53.2178  32.6961 0001466  99.5610 260.5547 15.08861864 35894,6917.814,95.436,540.693,538.664,0.0
53003.0,STARLINK-4255,PAYLOAD,2023-02-25 04:51:15,15.08864402,0.0001681,53.2181,30.3178,101.9711,258.147,0.0010288,0.00016134,0.0,0 STARLINK-4255,1 53003U 22076T   23056.20225776  .00016134  00000-0  10288-2 0  9991,2 53003  53.2181  30.3178 0001681 101.9711 258.1470 15.08864402 35970,6917.806,95.436,540.834,538.508,0.0
53003.0,STARLINK-4255,PAYLOAD,2023-02-26 04:42:02,15.08853719,0.000169,53.2186,25.8568,94.8868,265.2317,0.0017374,0.00027481,0.0,0 STARLINK-4255,1 53003U 22076T   23057.19586521  .00027481  00000-0  17374-2 0  9998,2 53003  53.2186  25.8568 0001690  94.8868 265.2317 15.08853719 36126,6917.838,95.437,540.873,538.534,0.0
53003.0,STARLINK-4255,PAYLOAD,2023-02-26 22:11:17,15.08837717,0.0001402,53.2183,22.5869,95.851,264.2642,0.0014259,0.00022477,0.0,0 STARLINK-4255,1 53003U 22076T   23057.92450826  .00022477  00000-0  14259-2 0  9996,2 53003  53.2183  22.5869 0001402  95.8510 264.2642 15.08837717 35766,6917.887,95.438,540.722,538.782,0.0
53003.0,STARLINK-4255,PAYLOAD,2023-02-26 23:46:40,15.08842986,0.0001013,53.2172,22.2901,92.7336,267.3772,0.00053793,8.284e-05,0.0,0 STARLINK-4255,1 53003U 22076T   23057.99074712  .00008284  00000-0  53793-3 0  9996,2 53003  53.2172  22.2901 0001013  92.7336 267.3772 15.08842986 36244,6917.871,95.437,540.437,539.035,0.0
53003.0,STARLINK-4255,PAYLOAD,2023-02-27 04:32:49,15.08862382,0.0001059,53.2169,21.398,96.5112,263.6001,0.0012781,0.00020124,0.0,0 STARLINK-4255,1 53003U 22076T   23058.18946271  .00020124  00000-0  12781-2 0  9994,2 53003  53.2169  21.3980 0001059  96.5112 263.6001 15.08862382 36270,6917.812,95.436,540.41,538.944,0.0
53003.0,STARLINK-4255,PAYLOAD,2023-02-27 22:02:04,15.08855127,0.0001176,53.2176,18.1267,95.6972,264.4154,0.00060322,9.329e-05,0.0,0 STARLINK-4255,1 53003U 22076T   23058.91810245  .00009329  00000-0  60322-3 0  9995,2 53003  53.2176  18.1267 0001176  95.6972 264.4154 15.08855127 35911,6917.834,95.437,540.513,538.886,0.0
53003.0,STARLINK-4255,PAYLOAD,2023-02-27 23:37:27,15.08858025,0.0001178,53.2176,17.831,90.9698,269.1429,0.00069536,0.00010801,0.0,0 STARLINK-4255,1 53003U 22076T   23058.98434230  .00010801  00000-0  69536-3 0  9991,2 53003  53.2176  17.8310 0001178  90.9698 269.1429 15.08858025 36391,6917.825,95.436,540.505,538.875,0.0
53003.0,STARLINK-4255,PAYLOAD,2023-02-28 07:34:22,15.08868971,0.0001063,53.2174,16.3423,88.2675,271.8439,0.0010727,0.00016839,0.0,0 STARLINK-4255,1 53003U 22076T   23059.31553595  .00016839  00000-0  10727-2 0  9999,2 53003  53.2174  16.3423 0001063  88.2675 271.8439 15.08868971 35971,6917.792,95.436,540.392,538.921,0.0
